[{"OBJECT_NAME":"STARLINK-35328","OBJECT_ID":"2025-211A","EPOCH":"2026-01-22T09:41:07.838016","MEAN_MOTION":15.05652076,"ECCENTRICITY":0.00016989,"INCLINATION":97.6026,"RA_OF_ASC_NODE":68.3816,"ARG_OF_PERICENTER":85.917,"MEAN_ANOMALY":274.225,"EPHEMERIS_TYPE":0,"CLASSIFICATION_TYPE":"U","NORAD_CAT_ID":65652,"ELEMENT_SET_NO":999,"REV_AT_EPOCH":2007,"BSTAR":0.00039772931,"MEAN_MOTION_DOT":5.683e-5,"MEAN_MOTION_DDOT":0},{"OBJECT_NAME":"STARLINK-34210","OBJECT_ID":"2025-211B","EPOCH":"2026-01-22T22:18:43.141536","MEAN_MOTION":15.05744405,"ECCENTRICITY":0.00040735,"INCLINATION":97.6011,"RA_OF_ASC_NODE":68.9137,"ARG_OF_PERICENTER":117.2203,"MEAN_ANOMALY":242.944,"EPHEMERIS_TYPE":0,"CLASSIFICATION_TYPE":"U","NORAD_CAT_ID":65653,"ELEMENT_SET_NO":999,"REV_AT_EPOCH":2015,"BSTAR":0.0012310274,"MEAN_MOTION_DOT":0.00017794,"MEAN_MOTION_DDOT":0},{"OBJECT_NAME":"STARLINK-35227","OBJECT_ID":"2025-211C","EPOCH":"2026-01-22T14:12:18.806112","MEAN_MOTION":15.05650173,"ECCENTRICITY":0.00012786,"INCLINATION":97.6031,"RA_OF_ASC_NODE":68.5946,"ARG_OF_PERICENTER":103.3999,"MEAN_ANOMALY":256.737,"EPHEMERIS_TYPE":0,"CLASSIFICATION_TYPE":"U","NORAD_CAT_ID":65654,"ELEMENT_SET_NO":999,"REV_AT_EPOCH":2010,"BSTAR":0.00055475387,"MEAN_MOTION_DOT":7.953e-5,"MEAN_MOTION_DDOT":0},{"OBJECT_NAME":"STARLINK-35240","OBJECT_ID":"2025-211D","EPOCH":"2026-01-22T01:38:37.840992","MEAN_MOTION":15.05638453,"ECCENTRICITY":0.00026906,"INCLINATION":97.6008,"RA_OF_ASC_NODE":68.0584,"ARG_OF_PERICENTER":112.8898,"MEAN_ANOMALY":247.2613,"EPHEMERIS_TYPE":0,"CLASSIFICATION_TYPE":"U","NORAD_CAT_ID":65655,"ELEMENT_SET_NO":999,"REV_AT_EPOCH":2002,"BSTAR":0.0002099169,"MEAN_MOTION_DOT":2.969e-5,"MEAN_MOTION_DDOT":0},{"OBJECT_NAME":"STARLINK-35344","OBJECT_ID":"2025-211E","EPOCH":"2026-01-22T22:14:46.034880","MEAN_MOTION":15.05663062,"ECCENTRICITY":9.809e-5,"INCLINATION":97.6026,"RA_OF_ASC_NODE":68.9194,"ARG_OF_PERICENTER":85.1908,"MEAN_ANOMALY":274.9431,"EPHEMERIS_TYPE":0,"CLASSIFICATION_TYPE":"U","NORAD_CAT_ID":65656,"ELEMENT_SET_NO":999,"REV_AT_EPOCH":2015,"BSTAR":0.0017423745,"MEAN_MOTION_DOT":0.00025178,"MEAN_MOTION_DDOT":0},{"OBJECT_NAME":"STARLINK-34540","OBJECT_ID":"2025-211F","EPOCH":"2026-01-22T09:21:12.048192","MEAN_MOTION":15.05614013,"ECCENTRICITY":7.378e-5,"INCLINATION":97.6037,"RA_OF_ASC_NODE":68.402,"ARG_OF_PERICENTER":68.161,"MEAN_ANOMALY":291.9695,"EPHEMERIS_TYPE":0,"CLASSIFICATION_TYPE":"U","NORAD_CAT_ID":65657,"ELEMENT_SET_NO":999,"REV_AT_EPOCH":2007,"BSTAR":0.00082757415,"MEAN_MOTION_DOT":0.00011889,"MEAN_MOTION_DDOT":0},{"OBJECT_NAME":"STARLINK-35282","OBJECT_ID":"2025-211G","EPOCH":"2026-01-22T14:00:18.688032","MEAN_MOTION":15.05654817,"ECCENTRICITY":9.418e-5,"INCLINATION":97.6021,"RA_OF_ASC_NODE":68.6051,"ARG_OF_PERICENTER":103.9076,"MEAN_ANOMALY":256.2256,"EPHEMERIS_TYPE":0,"CLASSIFICATION_TYPE":"U","NORAD_CAT_ID":65658,"ELEMENT_SET_NO":999,"REV_AT_EPOCH":2010,"BSTAR":9.8377573e-5,"MEAN_MOTION_DOT":1.359e-5,"MEAN_MOTION_DDOT":0},{"OBJECT_NAME":"STARLINK-35120","OBJECT_ID":"2025-211H","EPOCH":"2026-01-22T14:04:19.111584","MEAN_MOTION":15.05619505,"ECCENTRICITY":7.707e-5,"INCLINATION":97.6034,"RA_OF_ASC_NODE":68.6024,"ARG_OF_PERICENTER":70.1903,"MEAN_ANOMALY":289.9407,"EPHEMERIS_TYPE":0,"CLASSIFICATION_TYPE":"U","NORAD_CAT_ID":65659,"ELEMENT_SET_NO":999,"REV_AT_EPOCH":2010,"BSTAR":0.00059713428,"MEAN_MOTION_DOT":8.559e-5,"MEAN_MOTION_DDOT":0},{"OBJECT_NAME":"STARLINK-35246","OBJECT_ID":"2025-211J","EPOCH":"2026-01-22T13:56:20.730336","MEAN_MOTION":15.05635794,"ECCENTRICITY":0.00024335,"INCLINATION":97.603,"RA_OF_ASC_NODE":68.6094,"ARG_OF_PERICENTER":98.9629,"MEAN_ANOMALY":261.1873,"EPHEMERIS_TYPE":0,"CLASSIFICATION_TYPE":"U","NORAD_CAT_ID":65660,"ELEMENT_SET_NO":999,"REV_AT_EPOCH":2010,"BSTAR":0.0015091278,"MEAN_MOTION_DOT":0.00021774,"MEAN_MOTION_DDOT":0},{"OBJECT_NAME":"STARLINK-35220","OBJECT_ID":"2025-211K","EPOCH":"2026-01-22T13:52:21.668448","MEAN_MOTION":15.05627535,"ECCENTRICITY":0.00013362,"INCLINATION":97.6036,"RA_OF_ASC_NODE":68.6147,"ARG_OF_PERICENTER":104.5823,"MEAN_ANOMALY":255.5552,"EPHEMERIS_TYPE":0,"CLASSIFICATION_TYPE":"U","NORAD_CAT_ID":65661,"ELEMENT_SET_NO":999,"REV_AT_EPOCH":2010,"BSTAR":0.00051342587,"MEAN_MOTION_DOT":7.351e-5,"MEAN_MOTION_DDOT":0},{"OBJECT_NAME":"STARLINK-35176","OBJECT_ID":"2025-211L","EPOCH":"2026-01-22T13:48:22.441536","MEAN_MOTION":15.05620708,"ECCENTRICITY":0.00015028,"INCLINATION":97.6041,"RA_OF_ASC_NODE":68.6181,"ARG_OF_PERICENTER":104.628,"MEAN_ANOMALY":255.5114,"EPHEMERIS_TYPE":0,"CLASSIFICATION_TYPE":"U","NORAD_CAT_ID":65662,"ELEMENT_SET_NO":999,"REV_AT_EPOCH":2010,"BSTAR":0.00073789553,"MEAN_MOTION_DOT":0.00010594,"MEAN_MOTION_DDOT":0},{"OBJECT_NAME":"STARLINK-35190","OBJECT_ID":"2025-211M","EPOCH":"2026-01-22T15:20:05.407008","MEAN_MOTION":15.05620766,"ECCENTRICITY":0.00018411,"INCLINATION":97.6038,"RA_OF_ASC_NODE":68.6877,"ARG_OF_PERICENTER":102.5509,"MEAN_ANOMALY":257.5924,"EPHEMERIS_TYPE":0,"CLASSIFICATION_TYPE":"U","NORAD_CAT_ID":65663,"ELEMENT_SET_NO":999,"REV_AT_EPOCH":2011,"BSTAR":0.00089102655,"MEAN_MOTION_DOT":0.00012809,"MEAN_MOTION_DDOT":0},{"OBJECT_NAME":"STARLINK-35201","OBJECT_ID":"2025-211N","EPOCH":"2026-01-22T13:40:24.062016","MEAN_MOTION":15.05616221,"ECCENTRICITY":0.00015878,"INCLINATION":97.6042,"RA_OF_ASC_NODE":68.6257,"ARG_OF_PERICENTER":106.2045,"MEAN_ANOMALY":253.9356,"EPHEMERIS_TYPE":0,"CLASSIFICATION_TYPE":"U","NORAD_CAT_ID":65664,"ELEMENT_SET_NO":999,"REV_AT_EPOCH":2010,"BSTAR":0.00076454943,"MEAN_MOTION_DOT":0.00010978,"MEAN_MOTION_DDOT":0},{"OBJECT_NAME":"STARLINK-35115","OBJECT_ID":"2025-211P","EPOCH":"2026-01-22T13:36:24.898176","MEAN_MOTION":15.05624108,"ECCENTRICITY":0.00011576,"INCLINATION":97.6038,"RA_OF_ASC_NODE":68.6299,"ARG_OF_PERICENTER":97.2012,"MEAN_ANOMALY":262.9346,"EPHEMERIS_TYPE":0,"CLASSIFICATION_TYPE":"U","NORAD_CAT_ID":65665,"ELEMENT_SET_NO":999,"REV_AT_EPOCH":2010,"BSTAR":0.00058817847,"MEAN_MOTION_DOT":8.43e-5,"MEAN_MOTION_DDOT":0},{"OBJECT_NAME":"STARLINK-35181","OBJECT_ID":"2025-211Q","EPOCH":"2026-01-22T23:06:38.103264","MEAN_MOTION":15.05633138,"ECCENTRICITY":0.00010004,"INCLINATION":97.6033,"RA_OF_ASC_NODE":69.0277,"ARG_OF_PERICENTER":102.4703,"MEAN_ANOMALY":257.6635,"EPHEMERIS_TYPE":0,"CLASSIFICATION_TYPE":"U","NORAD_CAT_ID":65666,"ELEMENT_SET_NO":999,"REV_AT_EPOCH":2016,"BSTAR":0.00064759601,"MEAN_MOTION_DOT":9.291e-5,"MEAN_MOTION_DDOT":0},{"OBJECT_NAME":"STARLINK-35361","OBJECT_ID":"2025-211R","EPOCH":"2026-01-22T23:02:39.013728","MEAN_MOTION":15.05626928,"ECCENTRICITY":0.00012916,"INCLINATION":97.6026,"RA_OF_ASC_NODE":69.0301,"ARG_OF_PERICENTER":74.9757,"MEAN_ANOMALY":285.1612,"EPHEMERIS_TYPE":0,"CLASSIFICATION_TYPE":"U","NORAD_CAT_ID":65667,"ELEMENT_SET_NO":999,"REV_AT_EPOCH":2016,"BSTAR":0.00085474289,"MEAN_MOTION_DOT":0.00012286,"MEAN_MOTION_DDOT":0}]
