STARLINK-35328          
1 65652U 25211A   26022.40356294  .00005683  00000+0  39773-3 0  9993
2 65652  97.6026  68.3816 0001698  85.9170 274.2250 15.05652076 20070
STARLINK-34210          
1 65653U 25211B   26022.92966599  .00017794  00000+0  12310-2 0  9999
2 65653  97.6011  68.9137 0004073 117.2203 242.9440 15.05744405 20153
STARLINK-35227          
1 65654U 25211C   26022.59188433  .00007953  00000+0  55475-3 0  9992
2 65654  97.6031  68.5946 0001278 103.3999 256.7370 15.05650173 20100
STARLINK-35240          
1 65655U 25211D   26022.06849353  .00002969  00000+0  20992-3 0  9998
2 65655  97.6008  68.0584 0002690 112.8898 247.2613 15.05638453 20023
STARLINK-35344          
1 65656U 25211E   26022.92692170  .00025178  00000+0  17424-2 0  9999
2 65656  97.6026  68.9194 0000980  85.1908 274.9431 15.05663062 20157
STARLINK-34540          
1 65657U 25211F   26022.38972278  .00011889  00000+0  82757-3 0  9996
2 65657  97.6037  68.4020 0000737  68.1610 291.9695 15.05614013 20078
STARLINK-35282          
1 65658U 25211G   26022.58354963  .00001359  00000+0  98378-4 0  9992
2 65658  97.6021  68.6051 0000941 103.9076 256.2256 15.05654817 20106
STARLINK-35120          
1 65659U 25211H   26022.58633231  .00008559  00000+0  59713-3 0  9999
2 65659  97.6034  68.6024 0000770  70.1903 289.9407 15.05619505 20101
STARLINK-35246          
1 65660U 25211J   26022.58079549  .00021774  00000+0  15091-2 0  9991
2 65660  97.6030  68.6094 0002433  98.9629 261.1873 15.05635794 20104
STARLINK-35220          
1 65661U 25211K   26022.57802857  .00007351  00000+0  51343-3 0  9993
2 65661  97.6036  68.6147 0001336 104.5823 255.5552 15.05627535 20106
STARLINK-35176          
1 65662U 25211L   26022.57525974  .00010594  00000+0  73790-3 0  9999
2 65662  97.6041  68.6181 0001502 104.6280 255.5114 15.05620708 20103
STARLINK-35190          
1 65663U 25211M   26022.63895147  .00012809  00000+0  89103-3 0  9995
2 65663  97.6038  68.6877 0001841 102.5509 257.5924 15.05620766 20115
STARLINK-35201          
1 65664U 25211N   26022.56972294  .00010978  00000+0  76455-3 0  9998
2 65664  97.6042  68.6257 0001587 106.2045 253.9356 15.05616221 20105
STARLINK-35115          
1 65665U 25211P   26022.56695484  .00008430  00000+0  58818-3 0  9995
2 65665  97.6038  68.6299 0001157  97.2012 262.9346 15.05624108 20105
STARLINK-35181          
1 65666U 25211Q   26022.96294101  .00009291  00000+0  64760-3 0  9990
2 65666  97.6033  69.0277 0001000 102.4703 257.6635 15.05633138 20166
STARLINK-35361          
1 65667U 25211R   26022.96017377  .00012286  00000+0  85474-3 0  9992
2 65667  97.6026  69.0301 0001291  74.9757 285.1612 15.05626928 20161
